CELTEE 1                
1 41850U 16067C   18097.76528114  .00000075  00000-0  11850-4 0  9998
2 41850  97.9237 185.0520 0009510  45.0735 315.1256 14.96771333 76568
OPTICUBE 04             
1 41851U 16067D   18097.79083063  .00000646  00000-0  61912-4 0  9999
2 41851  97.9242 185.0106 0010012  47.9313 312.2758 14.96643406 76561
AEROCUBE 8D             
1 41852U 16067E   18097.28404823 -.00000289  00000-0 -20128-4 0  9994
2 41852  97.9253 184.3498 0010641  46.7490 313.4618 14.96447184 76474
AEROCUBE 8C             
1 41853U 16067F   18097.76458756  .00000116  00000-0  15574-4 0  9998
2 41853  97.9247 184.8038 0010811  46.6109 313.6010 14.96408711 76547
PROMETHEUS 2-1          
1 41854U 16067G   18097.77543140  .00000588  00000-0  57050-4 0  9990
2 41854  97.9253 184.8078 0011154  47.3766 312.8393 14.96488172 76541
PROMETHEUS 2-3          
1 41855U 16067H   18097.77794484  .00000678  00000-0  64992-4 0  9993
2 41855  97.9257 184.8132 0011380  47.8609 312.3577 14.96486038 76547
ITF-2                   
1 41932U 98067KU  18097.58476995  .00021834  00000-0  16797-3 0  9998
2 41932  51.6376 343.5092 0002817 274.0245  86.0431 15.71945493 69642
WASEDA-SAT3             
1 41933U 98067KV  18097.85994004  .00033649  00000-0  21563-3 0  9999
2 41933  51.6365 337.7337 0002283 262.2538  97.8203 15.75952075 69745
AOBA-VELOX 3            
1 41935U 98067KX  18097.55438481  .00027978  00000-0  19246-3 0  9993
2 41935  51.6375 341.0141 0002121 264.0061  96.0697 15.74418550 69776
INS-1B                  
1 41954U 17008G   18097.81825624  .00001123  00000-0  51049-4 0  9990
2 41954  97.4531 162.3568 0008145 233.8744 126.1739 15.22794898 63298
BGUSAT                  
1 41999U 17008BD  18097.86165262  .00001774  00000-0  75649-4 0  9993
2 41999  97.4572 163.2535 0006940 253.7966 106.2508 15.24255473 62716
DIDO-2                  
1 42000U 17008BE  18097.83545918  .00000739  00000-0  34417-4 0  9992
2 42000  97.4549 162.7663 0007112 256.1434 103.9012 15.23036175 62695
PEASSS                  
1 42015U 17008BV  18097.58798419  .00001029  00000-0  45686-4 0  9999
2 42015  97.4545 162.8951 0004935 265.9642  94.1031 15.23815140 63169
AL-FARABI 1             
1 42016U 17008BW  18097.59865969  .00001248  00000-0  54201-4 0  9992
2 42016  97.4551 163.0546 0004817 266.0110  94.0577 15.24178325 63297
NAYIF-1 (EO-88)         
1 42017U 17008BX  18097.85658810  .00001294  00000-0  56073-4 0  9997
2 42017  97.4549 163.3169 0004793 265.1922  94.8768 15.24201822 63359
HAVELSAT                
1 42700U 98067LH  18097.72081743  .00021018  00000-0  19492-3 0  9990
2 42700  51.6376 354.1644 0002957 356.7914   3.3063 15.67426816 50958
SGSAT                   
1 42703U 98067LL  18097.87691633  .00172153  21939-4  55936-3 0  9992
2 42703  51.6312 338.4929 0005022 224.8110 135.2490 15.90390031 51080
CXBN-2                  
1 42704U 98067LM  18097.72395829  .00020059  00000-0  18898-3 0  9990
2 42704  51.6384 354.9472 0000993 228.2655 131.8256 15.67070829 50861
ICECUBE                 
1 42705U 98067LN  18097.74031502  .00038200  00000-0  28682-3 0  9997
2 42705  51.6425 350.6120 0001583 251.0700 109.0127 15.72198271 50987
PHOENIX                 
1 42706U 98067LP  18097.86418501  .00020045  00000-0  19499-3 0  9993
2 42706  51.6376 354.3771 0000357 192.7253 167.3734 15.66270993 50872
X-CUBESAT               
1 42707U 98067LQ  18097.72066748  .00021611  00000-0  19771-3 0  9994
2 42707  51.6351 354.1217 0000605 184.2986 175.8005 15.67745303 50850
QBEE50-LTU-OC           
1 42708U 98067LR  18097.76211707  .00019558  00000-0  18361-3 0  9997
2 42708  51.6376 354.4280 0000536 187.5215 172.5773 15.67177907 50816
ALTAIR PATHFINDER       
1 42711U 98067LS  18097.88336523  .00010283  00000-0  11906-3 0  9992
2 42711  51.6382 359.0051 0002815 268.8163  91.2509 15.62485747 50476
SHARC                   
1 42712U 98067LT  18097.85689099  .00008828  00000-0  10786-3 0  9996
2 42712  51.6400   0.3709 0001228 273.1904  86.8949 15.61290761 50694
ZA-AEROSAT              
1 42713U 98067LU  18097.70876775  .00015274  00000-0  15689-3 0  9990
2 42713  51.6367 357.0793 0001410 232.1507 127.9361 15.65125281 50489
LINK                    
1 42714U 98067LV  18097.89022838  .00036905  00000-0  27482-3 0  9992
2 42714  51.6325 349.9593 0002073 211.9573 148.1300 15.72409658 50700
CSUNSAT 1               
1 42715U 98067LW  18097.74935197  .00015830  00000-0  16010-3 0  9997
2 42715  51.6381 356.6143 0002879 251.2008 108.8675 15.65485118 50494
SPACECUBE               
1 42717U 98067LY  18097.72255599  .00020017  00000-0  18826-3 0  9998
2 42717  51.6361 354.9097 0001745   5.3048 354.7966 15.67115702 49883
HOOPOE                  
1 42718U 98067LZ  18097.85096147  .00024225  00000-0  21199-3 0  9997
2 42718  51.6373 352.7711 0001349   3.2435 356.8570 15.68763067 49926
CHALLENGER              
1 42721U 98067MA  18097.87536048  .00044754  00000-0  29070-3 0  9997
2 42721  51.6334 347.6063 0002063 309.8282  50.2536 15.75504297 49696
NJUST-1                 
1 42722U 98067MB  18097.85842227  .00014078  00000-0  14951-3 0  9993
2 42722  51.6377 357.3403 0004504 332.8246  27.2512 15.64350821 49562
UNSW-ECO                
1 42723U 98067MC  18097.87513299  .00026652  00000-0  22943-3 0  9991
2 42723  51.6385 352.9529 0003171 328.1673  31.9131 15.69101337 49608
LILACSAT-1              
1 42725U 98067ME  18097.80330732  .00016447  00000-0  16233-3 0  9991
2 42725  51.6377 356.2203 0003273 334.7982  25.2854 15.66065666 49470
NSIGHT-1                
1 42726U 98067MF  18097.89287439  .00006084  00000-0  78799-4 0  9998
2 42726  51.6400   1.3562 0004736 337.3168  22.7615 15.60415012 49424
SNUSAT-1                
1 42727U 98067MG  18097.74666585  .00017967  00000-0  17748-3 0  9994
2 42727  51.6360 356.5534 0004922 284.7807  75.2643 15.65964168 49437
I-INSPIRE II            
1 42731U 98067ML  18097.89138119  .00026443  00000-0  22293-3 0  9992
2 42731  51.6362 352.2600 0004067 263.3562  96.6973 15.69611397 49397
POLYITAN-2-SAU          
1 42732U 98067MM  18097.71754320  .00020778  00000-0  19149-3 0  9993
2 42732  51.6369 354.8679 0004416 263.0951  96.9543 15.67585392 49340
SNUSAT-1B               
1 42733U 98067MN  18097.87383667  .00018940  00000-0  18261-3 0  9995
2 42733  51.6374 355.1717 0004568 270.6756  89.3716 15.66531408 49356
EXALTA-1                
1 42734U 98067MP  18097.89374015  .00028640  00000-0  23886-3 0  9992
2 42734  51.6348 352.2646 0004498 296.0182  64.0351 15.69823966 49344
BEEAGLESAT              
1 42736U 98067MR  18097.88420561  .00015678  00000-0  15758-3 0  9997
2 42736  51.6369 355.9893 0004561 326.8975  33.1734 15.65647161 49402
ATLANTIS                
1 42737U 98067MS  18087.11387049  .13966215  12356-4  93055-3 0  9999
2 42737  51.6095  27.8979 0006293 234.7874 125.2564 16.40626348 47903
UCLSAT                  
1 42765U 17036A   18096.73267099  .00001100  00000-0  51711-4 0  9999
2 42765  97.4087 157.7108 0010967 334.6399  25.4297 15.21650694 44433
LITUANICASAT-2          
1 42768U 17036D   18097.22519746  .00001781  00000-0  83142-4 0  9994
2 42768  97.4100 157.8395 0014546 319.4507  40.5644 15.21054223 43776
AALTO-1                 
1 42775U 17036L   18097.55918923  .00000696  00000-0  34854-4 0  9998
2 42775  97.4083 158.1324 0013024 316.8250  43.1963 15.20612618 43765
URSA MAIOR              
1 42776U 17036M   18097.22014734  .00000760  00000-0  37699-4 0  9992
2 42776  97.4088 157.8363 0012888 318.3787  41.6467 15.20681491 43711
COMPASS 2               
1 42777U 17036N   18097.64635384  .00001308  00000-0  61208-4 0  9991
2 42777  97.4105 158.5333 0011789 321.0944  38.9442 15.21473125 43785
DIAMOND RED             
1 42783U 17036U   18097.63471013  .00000859  00000-0  41480-4 0  9994
2 42783  97.4088 158.4946 0011452 330.7939  29.2655 15.21291054 43787
PEGASUS                 
1 42784U 17036V   18097.55060498  .00000992  00000-0  47173-4 0  9990
2 42784  97.4090 158.4592 0011439 331.1476  28.9126 15.21472096 43779
DIAMOND GREEN           
1 42785U 17036W   18097.63372887  .00000861  00000-0  41565-4 0  9992
2 42785  97.4089 158.5044 0011365 331.4911  28.5702 15.21296252 43770
DIAMOND BLUE            
1 42786U 17036X   18097.56709516  .00000875  00000-0  42166-4 0  9991
2 42786  97.4090 158.4393 0011232 332.1593  27.9040 15.21296057 43845
NUDTSAT                 
1 42787U 17036Y   18097.82244498  .00001452  00000-0  66669-4 0  9990
2 42787  97.4095 158.8653 0010915 330.1314  29.9298 15.21964358 43663
SUCHAI                  
1 42788U 17036Z   18097.58534545  .00001160  00000-0  54261-4 0  9990
2 42788  97.4090 158.5635 0011014 331.2638  28.7990 15.21708573 43850
SKCUBE                  
1 42789U 17036AA  18096.72849372  .00001138  00000-0  53321-4 0  9994
2 42789  97.4089 157.7198 0010931 334.5389  25.5308 15.21684286 43649
VZLUSAT-1               
1 42790U 17036AB  18097.22114453  .00001490  00000-0  68289-4 0  9997
2 42790  97.4092 158.2810 0010548 333.1761  26.8928 15.21990831 43722
ROBUSTA-1B              
1 42792U 17036AD  18097.22972177  .00001127  00000-0  52620-4 0  9993
2 42792  97.4087 158.2620 0010513 334.1223  25.9486 15.21824378 43735
CICERO 6                
1 42793U 17036AE  18097.61267384  .00000685  00000-0  33304-4 0  9990
2 42793  97.4081 158.6549 0009660 334.6024  25.4736 15.21732197 43863
D-SAT                   
1 42794U 17036AF  18097.57043199  .00000428  00000-0  42706-4 0  9993
2 42794  97.6000 154.8666 0127877 156.6217 204.0889 14.90816536 43209
TOKI                    
1 42820U 98067MU  18097.72381995  .00016833  00000-0  17483-3 0  9992
2 42820  51.6371 358.6732 0002133 230.5873 129.4934 15.64757000 42814
MAZAALAI (NUMSAT-1)     
1 42822U 98067MW  18097.55468411  .00015408  00000-0  16192-3 0  9997
2 42822  51.6372 359.7970 0002002 236.2180 123.8624 15.64536972 42785
